#dV2023  1 27 10  0  0.00000000    1682       CTS   FIT  GFZ
## 2246 468000.00000000    30.00000000 59971 0.4166666666667
+    1   L65  0  0  0  0  0  0  0  0  0  0  0  0  0  0  0  0
+          0  0  0  0  0  0  0  0  0  0  0  0  0  0  0  0  0
+          0  0  0  0  0  0  0  0  0  0  0  0  0  0  0  0  0
+          0  0  0  0  0  0  0  0  0  0  0  0  0  0  0  0  0
+          0  0  0  0  0  0  0  0  0  0  0  0  0  0  0  0  0
++         0  0  0  0  0  0  0  0  0  0  0  0  0  0  0  0  0
++         0  0  0  0  0  0  0  0  0  0  0  0  0  0  0  0  0
++         0  0  0  0  0  0  0  0  0  0  0  0  0  0  0  0  0
++         0  0  0  0  0  0  0  0  0  0  0  0  0  0  0  0  0
++         0  0  0  0  0  0  0  0  0  0  0  0  0  0  0  0  0
%c L  cc GPS ccc cccc cccc cccc cccc ccccc ccccc ccccc ccccc
%c cc cc ccc ccc cccc cccc cccc cccc ccccc ccccc ccccc ccccc
%f  0.0000000  0.000000000  0.00000000000  0.000000000000000
%f  0.0000000  0.000000000  0.00000000000  0.000000000000000
%i    0    0    0    0      0      0      0      0         0
%i    0    0    0    0      0      0      0      0         0
/* CCCCCCCCCCCCCCCCCCCCCCCCCCCCCCCCCCCCCCCCCCCCCCCCCCCCCCCCCCCCCCCCCCCCCCCCCCCCC
/* C                             GFZ RSO-ORBIT                                 C
/* C DOI: https://doi.org/10.5880/GFZ_ORBIT/RSO/L65_G_v02                      C
/* C                                                                           C
/* C DORIS        RMS: not applicable                                          C
/* C GNSS-E Code  RMS: not applicable                                          C
/* C GNSS-E Phase RMS: not applicable                                          C
/* C GNSS-G Code  RMS:  50.686 [cm]   Obs.acc.:     13303 Obs.eli.:      1210  C
/* C GNSS-G Phase RMS:   4.330 [mm]   Obs.acc.:     13303 Obs.eli.:      1210  C
/* C SLR          RMS:   2.594 [cm]   Obs.acc.:        62 Obs.eli.:         0  C
/* C                                                                           C
/* CCCCCCCCCCCCCCCCCCCCCCCCCCCCCCCCCCCCCCCCCCCCCCCCCCCCCCCCCCCCCCCCCCCCCCCCCCCCC
*  2023  1 27 20 37 30.00000000
PL65   1493.944561  -3432.276328   5761.758341     27.167422
VL65 -25735.768960  58452.021845  41334.971711 999999.999999
*  2023  1 27 20 38  0.00000000
PL65   1416.318473  -3254.899941   5882.557084     27.636192
VL65 -26009.246149  59788.283803  39190.119248 999999.999999
*  2023  1 27 20 38 30.00000000
PL65   1337.923344  -3073.611133   5996.855819     28.105018
VL65 -26248.464300  61060.040682  37002.030544 999999.999999
*  2023  1 27 20 39  0.00000000
PL65   1258.861919  -2888.605739   6104.528434     28.573753
VL65 -26453.452102  62265.757817  34773.110148 999999.999999
*  2023  1 27 20 39 30.00000000
PL65   1179.236791  -2700.084091   6205.456095     29.042505
VL65 -26624.282038  63403.972528  32505.806370 999999.999999
*  2023  1 27 20 40  0.00000000
PL65   1099.150270  -2508.250797   6299.527376     29.511239
VL65 -26761.070451  64473.296265  30202.607924 999999.999999
*  2023  1 27 20 40 30.00000000
PL65   1018.704251  -2313.314520   6386.638372     29.979981
VL65 -26863.977228  65472.415148  27866.040168 999999.999999
*  2023  1 27 20 41  0.00000000
PL65    938.000088  -2115.487752   6466.692807     30.448672
VL65 -26933.204326  66400.090252  25498.663174 999999.999999
*  2023  1 27 20 41 30.00000000
PL65    857.138464  -1914.986587   6539.602135     30.917335
VL65 -26968.994118  67255.159284  23103.070420 999999.999999
*  2023  1 27 20 42  0.00000000
PL65    776.219280  -1712.030489   6605.285638     31.386001
VL65 -26971.628429  68036.539077  20681.887299 999999.999999
*  2023  1 27 20 42 30.00000000
PL65    695.341529  -1506.842046   6663.670521     31.854717
VL65 -26941.428485  68743.228827  18237.767869 999999.999999
*  2023  1 27 20 43  0.00000000
PL65    614.603183  -1299.646726   6714.691986     32.323520
VL65 -26878.755413  69374.310822  15773.390125 999999.999999
*  2023  1 27 20 43 30.00000000
PL65    534.101069  -1090.672626   6758.293302     32.792325
VL65 -26784.010886  69928.950378  13291.452903 999999.999999
*  2023  1 27 20 44  0.00000000
PL65    453.930750   -880.150220   6794.425859     33.260990
VL65 -26657.635675  70406.396494  10794.671634 999999.999999
*  2023  1 27 20 44 30.00000000
PL65    374.186411   -668.312112   6823.049217     33.729436
VL65 -26500.105931  70805.980804   8285.776227 999999.999999
*  2023  1 27 20 45  0.00000000
PL65    294.960759   -455.392784   6844.131148     34.198125
VL65 -26311.932267  71127.118898   5767.512157 999999.999999
*  2023  1 27 20 45 30.00000000
PL65    216.344916   -241.628345   6857.647679     34.666991
VL65 -26093.660802  71369.313478   3242.637399 999999.999999
*  2023  1 27 20 46  0.00000000
PL65    138.428313    -27.256260   6863.583126     35.135688
VL65 -25845.872402  71532.155024    713.917355 999999.999999
*  2023  1 27 20 46 30.00000000
PL65     61.298586    187.484907   6861.930107     35.604327
VL65 -25569.181527  71615.321299  -1815.878343 999999.999999
*  2023  1 27 20 47  0.00000000
PL65    -14.958520    402.355755   6852.689552     36.073002
VL65 -25264.235260  71618.577486  -4343.978008 999999.999999
*  2023  1 27 20 47 30.00000000
PL65    -90.259248    617.116312   6835.870707     36.541770
VL65 -24931.711899  71541.776903  -6867.610266 999999.999999
*  2023  1 27 20 48  0.00000000
PL65   -164.521922    831.526299   6811.491127     37.010443
VL65 -24572.319627  71384.861717  -9384.006855 999999.999999
*  2023  1 27 20 48 30.00000000
PL65   -237.667033   1045.345396   6779.576664     37.479082
VL65 -24186.795462  71147.863318 -11890.405677 999999.999999
*  2023  1 27 20 49  0.00000000
PL65   -309.617326   1258.333513   6740.161444     37.947754
VL65 -23775.903969  70830.902375 -14384.053719 999999.999999
*  2023  1 27 20 49 30.00000000
PL65   -380.297879   1470.251055   6693.287834     38.416436
VL65 -23340.435836  70434.188896 -16862.209720 999999.999999
*  2023  1 27 20 50  0.00000000
PL65   -449.636179   1680.859191   6639.006405     38.885096
VL65 -22881.206825  69958.022359 -19322.146959 999999.999999
*  2023  1 27 20 50 30.00000000
PL65   -517.562199   1889.920122   6577.375881     39.353698
VL65 -22399.057198  69402.791606 -21761.156590 999999.999999
*  2023  1 27 20 51  0.00000000
PL65   -584.008465   2097.197350   6508.463082     39.822459
VL65 -21894.850512  68768.973397 -24176.550549 999999.999999
*  2023  1 27 20 51 30.00000000
PL65   -648.910129   2302.455936   6432.342861     40.291245
VL65 -21369.471919  68057.132013 -26565.661763 999999.999999
*  2023  1 27 20 52  0.00000000
PL65   -712.205030   2505.462770   6349.098039     40.760110
VL65 -20823.827550  67267.922008 -28925.846082 999999.999999
*  2023  1 27 20 52 30.00000000
PL65   -773.833754   2705.986842   6258.819328     41.228994
VL65 -20258.843661  66402.088900 -31254.487811 999999.999999
*  2023  1 27 20 53  0.00000000
PL65   -833.739696   2903.799513   6161.605239     41.697569
VL65 -19675.464760  65460.467721 -33549.003883 999999.999999
*  2023  1 27 20 53 30.00000000
PL65   -891.869109   3098.674781   6057.561979     42.166424
VL65 -19074.651966  64443.981277 -35806.847478 999999.999999
*  2023  1 27 20 54  0.00000000
PL65   -948.171150   3290.389540   5946.803336     42.635219
VL65 -18457.381530  63353.637393 -38025.509989 999999.999999
*  2023  1 27 20 54 30.00000000
PL65  -1002.597929   3478.723837   5829.450571     43.103976
VL65 -17824.643249  62190.528718 -40202.521309 999999.999999
*  2023  1 27 20 55  0.00000000
PL65  -1055.104543   3663.461123   5705.632290     43.572660
VL65 -17177.438755  60955.833697 -42335.452570 999999.999999
*  2023  1 27 20 55 30.00000000
PL65  -1105.649108   3844.388514   5575.484322     44.041482
VL65 -16516.780183  59650.815888 -44421.919292 999999.999999
*  2023  1 27 20 56  0.00000000
PL65  -1154.192792   4021.297041   5439.149578     44.510269
VL65 -15843.690035  58276.823207 -46459.584238 999999.999999
*  2023  1 27 20 56 30.00000000
PL65  -1200.699848   4193.981907   5296.777906     44.978920
VL65 -15159.200491  56835.286678 -48446.161009 999999.999999
*  2023  1 27 20 57  0.00000000
PL65  -1245.137635   4362.242727   5148.525935     45.447610
VL65 -14464.351264  55327.719127 -50379.416837 999999.999999
*  2023  1 27 20 57 30.00000000
PL65  -1287.476641   4525.883781   4994.556905     45.916290
VL65 -13760.187447  53755.714305 -52257.175421 999999.999999
*  2023  1 27 20 58  0.00000000
PL65  -1327.690494   4684.714246   4835.040498     46.385336
VL65 -13047.758013  52120.944998 -54077.320259 999999.999999
*  2023  1 27 20 58 30.00000000
PL65  -1365.755975   4838.548434   4670.152653     46.854813
VL65 -12328.114233  50425.160610 -55837.797168 999999.999999
*  2023  1 27 20 59  0.00000000
PL65  -1401.653017   4987.206017   4500.075375     47.324144
VL65 -11602.307652  48670.185367 -57536.616356 999999.999999
*  2023  1 27 20 59 30.00000000
PL65  -1435.364708   5130.512250   4324.996538     47.793196
VL65 -10871.388293  46857.916281 -59171.854756 999999.999999
*  2023  1 27 21  0  0.00000000
PL65  -1466.877282   5268.298185   4145.109684     48.262606
VL65 -10136.404074  44990.320473 -60741.657723 999999.999999
*  2023  1 27 21  0 30.00000000
PL65  -1496.180114   5400.400880   3960.613815     48.731824
VL65  -9398.400951  43069.433936 -62244.239985 999999.999999
*  2023  1 27 21  1  0.00000000
PL65  -1523.265712   5526.663601   3771.713181     49.201464
VL65  -8658.422459  41097.361544 -63677.888229 999999.999999
*  2023  1 27 21  1 30.00000000
PL65  -1548.129713   5646.936034   3578.617059     49.671635
VL65  -7917.508383  39076.275915 -65040.965776 999999.999999
*  2023  1 27 21  2  0.00000000
PL65  -1570.770861   5761.074477   3381.539514     50.141327
VL65  -7176.691975  37008.412803 -66331.918021 999999.999999
*  2023  1 27 21  2 30.00000000
PL65  -1591.190986   5868.942024   3180.699151     50.610439
VL65  -6436.996191  34896.064809 -67549.272716 999999.999999
EOF
